NORAD_CAT_ID,OBJECT_NAME,OBJECT_TYPE,EPOCH,MEAN_MOTION,ECCENTRICITY,INCLINATION,RA_OF_ASC_NODE,ARG_OF_PERICENTER,MEAN_ANOMALY,BSTAR,MEAN_MOTION_DOT,MEAN_MOTION_DDOT,TLE_LINE0,TLE_LINE1,TLE_LINE2,SEMIMAJOR_AXIS,PERIOD,APOGEE,PERIGEE,DECAYED
52105.0,STARLINK-3706,PAYLOAD,2024-05-23 07:37:53,15.08853973,0.0001247,53.2171,141.199,99.2518,260.8615,0.00016271,2.304e-05,0.0,0 STARLINK-3706,1 52105U 22029T   24144.31797747  .00002304  00000-0  16271-3 0  9997,2 52105  53.2171 141.1990 0001247  99.2518 260.8615 15.08853973121840,6917.838,95.437,540.565,538.84,0.0
52105.0,STARLINK-3706,PAYLOAD,2024-05-24 04:17:54,15.08850137,0.0001407,53.2179,137.3341,87.2593,272.856,1.4564e-05,-5.6e-07,0.0,0 STARLINK-3706,1 52105U 22029T   24145.17909830 -.00000056  00000-0  14564-4 0  9997,2 52105  53.2179 137.3341 0001407  87.2593 272.8560 15.08850137121978,6917.849,95.437,540.688,538.741,0.0
52105.0,STARLINK-3706,PAYLOAD,2024-05-24 09:04:03,15.08851266,0.0001409,53.2179,136.4413,87.8499,272.2655,1.6306e-05,-2.8e-07,0.0,0 STARLINK-3706,1 52105U 22029T   24145.37781540 -.00000028  00000-0  16306-4 0  9990,2 52105  53.2179 136.4413 0001409  87.8499 272.2655 15.08851266122009,6917.846,95.437,540.686,538.736,0.0
52105.0,STARLINK-3706,PAYLOAD,2024-05-25 05:44:04,15.08842051,0.000142,53.2178,132.5736,89.9458,270.1697,-3.0879e-05,-7.79e-06,0.0,0 STARLINK-3706,1 52105U 22029T   24146.23893752 -.00000779  00000-0 -30879-4 0  9990,2 52105  53.2178 132.5736 0001420  89.9458 270.1697 15.08842051122133,6917.874,95.437,540.721,538.757,0.0
52105.0,STARLINK-3706,PAYLOAD,2024-05-26 05:34:51,15.08841946,0.00013,53.2174,128.1145,92.436,267.6781,-3.1506e-06,-3.38e-06,0.0,0 STARLINK-3706,1 52105U 22029T   24147.23253583 -.00000338  00000-0 -31506-5 0  9993,2 52105  53.2174 128.1145 0001300  92.4360 267.6781 15.08841946122285,6917.874,95.437,540.639,538.84,0.0
52105.0,STARLINK-3706,PAYLOAD,2024-05-26 23:04:06,15.08832338,0.000141,53.2181,124.8465,98.3503,261.7649,1.2716e-05,-8.6e-07,0.0,0 STARLINK-3706,1 52105U 22029T   24147.96118294 -.00000086  00000-0  12716-4 0  9992,2 52105  53.2181 124.8465 0001410  98.3503 261.7649 15.08832338122392,6917.904,95.438,540.744,538.793,0.0
52105.0,STARLINK-3706,PAYLOAD,2024-05-27 05:25:36,15.08864848,0.0001703,53.2178,123.6558,114.2782,245.8388,0.0001493,2.09e-05,0.0,0 STARLINK-3706,1 52105U 22029T   24148.22611997  .00002090  00000-0  14930-3 0  9995,2 52105  53.2178 123.6558 0001703 114.2782 245.8388 15.08864848122439,6917.804,95.436,540.848,538.491,0.0
52105.0,STARLINK-3706,PAYLOAD,2024-05-27 14:57:57,15.08832872,0.0001429,53.2181,121.8713,100.5021,259.6133,1.5518e-05,-4.1e-07,0.0,0 STARLINK-3706,1 52105U 22029T   24148.62358464 -.00000041  00000-0  15518-4 0  9995,2 52105  53.2181 121.8713 0001429 100.5021 259.6133 15.08832872122494,6917.902,95.438,540.756,538.779,0.0
52105.0,STARLINK-3706,PAYLOAD,2024-05-28 08:27:11,15.08837794,0.0001416,53.218,118.5998,100.9076,259.2075,5.8278e-05,6.4e-06,0.0,0 STARLINK-3706,1 52105U 22029T   24149.35222147  .00000640  00000-0  58278-4 0  9998,2 52105  53.2180 118.5998 0001416 100.9076 259.2075 15.08837794122603,6917.887,95.438,540.732,538.773,0.0
52105.0,STARLINK-3706,PAYLOAD,2024-05-29 06:42:36,15.08844817,0.0001585,53.2177,114.4386,112.2136,247.9025,-6.4974e-05,-1.322e-05,0.0,0 STARLINK-3706,1 52105U 22029T   24150.27958339 -.00001322  00000-0 -64974-4 0  9990,2 52105  53.2177 114.4386 0001585 112.2136 247.9025 15.08844817122743,6917.866,95.437,540.827,538.634,0.0
52105.0,STARLINK-3706,PAYLOAD,2024-05-30 04:57:59,15.08854871,0.0001434,53.2172,110.2759,111.0576,249.057,2.0345e-05,3.6e-07,0.0,0 STARLINK-3706,1 52105U 22029T   24151.20693605  .00000036  00000-0  20345-4 0  9999,2 52105  53.2172 110.2759 0001434 111.0576 249.0570 15.08854871122888,6917.835,95.437,540.692,538.708,0.0
52105.0,STARLINK-3706,PAYLOAD,2024-05-30 06:33:22,15.0885062,0.0001343,53.2174,109.9785,87.232,272.8826,7.0277e-05,8.31e-06,0.0,0 STARLINK-3706,1 52105U 22029T   24151.27317725  .00000831  00000-0  70277-4 0  9994,2 52105  53.2174 109.9785 0001343  87.2320 272.8826 15.08850620122891,6917.848,95.437,540.642,538.784,0.0
52105.0,STARLINK-3706,PAYLOAD,2024-05-30 20:51:52,15.08821191,0.0001289,53.2173,107.3019,93.022,267.0919,-3.0723e-05,-7.77e-06,0.0,0 STARLINK-3706,1 52105U 22029T   24151.86936299 -.00000777  00000-0 -30723-4 0  9995,2 52105  53.2173 107.3019 0001289  93.0220 267.0919 15.08821191122985,6917.938,95.439,540.695,538.911,0.0
52105.0,STARLINK-3706,PAYLOAD,2024-05-31 06:24:12,15.08826975,0.0001625,53.2184,105.5164,91.3796,268.7383,-6.6565e-05,-1.347e-05,0.0,0 STARLINK-3706,1 52105U 22029T   24152.26680564 -.00001347  00000-0 -66565-4 0  9998,2 52105  53.2184 105.5164 0001625  91.3796 268.7383 15.08826975123047,6917.92,95.438,540.909,538.661,0.0
52105.0,STARLINK-3706,PAYLOAD,2024-06-01 03:04:11,15.08850424,0.000147,53.2176,101.651,86.3111,273.8049,6.1391e-05,6.89e-06,0.0,0 STARLINK-3706,1 52105U 22029T   24153.12790905  .00000689  00000-0  61391-4 0  9993,2 52105  53.2176 101.6510 0001470  86.3111 273.8049 15.08850424123179,6917.849,95.437,540.73,538.697,0.0
52105.0,STARLINK-3706,PAYLOAD,2024-06-01 14:11:52,15.08853469,0.0001472,53.2179,99.5699,86.5451,273.5709,8.8225e-05,1.117e-05,0.0,0 STARLINK-3706,1 52105U 22029T   24153.59158471  .00001117  00000-0  88225-4 0  9992,2 52105  53.2179  99.5699 0001472  86.5451 273.5709 15.08853469123246,6917.839,95.437,540.723,538.686,0.0
52105.0,STARLINK-3706,PAYLOAD,2024-06-01 20:33:26,15.08838708,0.000156,53.2185,98.381,85.3587,274.7583,0.00023576,3.466e-05,0.0,0 STARLINK-3706,1 52105U 22029T   24153.85655280  .00003466  00000-0  23576-3 0  9997,2 52105  53.2185  98.3810 0001560  85.3587 274.7583 15.08838708123286,6917.884,95.438,540.829,538.67,0.0
52105.0,STARLINK-3706,PAYLOAD,2024-06-02 02:54:58,15.08850035,0.0001647,53.218,97.1903,90.7113,269.4068,0.00050559,7.77e-05,0.0,0 STARLINK-3706,1 52105U 22029T   24154.12151406  .00007770  00000-0  50559-3 0  9992,2 52105  53.2180  97.1903 0001647  90.7113 269.4068 15.08850035123323,6917.85,95.437,540.854,538.575,0.0
52105.0,STARLINK-3706,PAYLOAD,2024-06-03 02:45:45,15.08850186,0.0001689,53.2178,92.7277,93.1879,266.9307,4.1315e-05,3.7e-06,0.0,0 STARLINK-3706,1 52105U 22029T   24155.11511003  .00000370  00000-0  41315-4 0  9995,2 52105  53.2178  92.7277 0001689  93.1879 266.9307 15.08850186123478,6917.849,95.437,540.883,538.546,0.0
52105.0,STARLINK-3706,PAYLOAD,2024-06-03 12:18:04,15.08848387,0.0001606,53.2178,90.9454,89.8502,270.2674,1.4727e-05,-5.4e-07,0.0,0 STARLINK-3706,1 52105U 22029T   24155.51254735 -.00000054  00000-0  14727-4 0  9992,2 52105  53.2178  90.9454 0001606  89.8502 270.2674 15.08848387123531,6917.855,95.437,540.831,538.609,0.0
52105.0,STARLINK-3706,PAYLOAD,2024-06-03 20:14:59,15.08844659,0.0001602,53.2177,89.4596,98.6365,261.4809,-3.8504e-05,-9.01e-06,0.0,0 STARLINK-3706,1 52105U 22029T   24155.84374763 -.00000901  00000-0 -38504-4 0  9993,2 52105  53.2177  89.4596 0001602  98.6365 261.4809 15.08844659123586,6917.866,95.437,540.839,538.623,0.0
52105.0,STARLINK-3706,PAYLOAD,2024-06-04 12:08:50,15.08849422,0.0001341,53.2164,86.4845,85.1489,274.9656,9.8143e-05,1.275e-05,0.0,0 STARLINK-3706,1 52105U 22029T   24156.50614128  .00001275  00000-0  98143-4 0  9997,2 52105  53.2164  86.4845 0001341  85.1489 274.9656 15.08849422123687,6917.852,95.437,540.644,538.789,0.0
52105.0,STARLINK-3706,PAYLOAD,2024-06-05 02:27:19,15.0884313,0.0001464,53.2185,83.8128,102.4009,257.7147,4.3018e-05,3.97e-06,0.0,0 STARLINK-3706,1 52105U 22029T   24157.10230792  .00000397  00000-0  43018-4 0  9990,2 52105  53.2185  83.8128 0001464 102.4009 257.7147 15.08843130123776,6917.871,95.437,540.749,538.723,0.0
52105.0,STARLINK-3706,PAYLOAD,2024-06-05 11:59:38,15.08842249,0.0001385,53.218,82.0288,94.0482,266.0668,7.738e-05,9.44e-06,0.0,0 STARLINK-3706,1 52105U 22029T   24157.49974788  .00000944  00000-0  77380-4 0  9999,2 52105  53.2180  82.0288 0001385  94.0482 266.0668 15.08842249123830,6917.874,95.437,540.697,538.78,0.0
52105.0,STARLINK-3706,PAYLOAD,2024-06-06 02:18:07,15.0883666,0.0001355,53.2191,79.3517,85.278,274.8367,-3.1129e-05,-7.83e-06,0.0,0 STARLINK-3706,1 52105U 22029T   24158.09591540 -.00000783  00000-0 -31129-4 0  9991,2 52105  53.2191  79.3517 0001355  85.2780 274.8367 15.08836660123929,6917.891,95.438,540.693,538.818,0.0
52105.0,STARLINK-3706,PAYLOAD,2024-06-06 11:50:25,15.08841069,0.0001378,53.2196,77.5683,93.0057,267.1093,4.3997e-05,4.12e-06,0.0,0 STARLINK-3706,1 52105U 22029T   24158.49335132  .00000412  00000-0  43997-4 0  9991,2 52105  53.2196  77.5683 0001378  93.0057 267.1093 15.08841069123983,6917.877,95.437,540.695,538.789,0.0
52105.0,STARLINK-3706,PAYLOAD,2024-06-06 18:11:58,15.08835805,0.0001315,53.2199,76.3794,87.9395,272.1748,0.00010885,1.445e-05,0.0,0 STARLINK-3706,1 52105U 22029T   24158.75831324  .00001445  00000-0  10885-3 0  9990,2 52105  53.2199  76.3794 0001315  87.9395 272.1748 15.08835805124024,6917.893,95.438,540.668,538.849,0.0
52105.0,STARLINK-3706,PAYLOAD,2024-06-07 18:02:45,15.08825625,0.0001366,53.219,71.9176,88.556,271.5589,0.00030127,4.508e-05,0.0,0 STARLINK-3706,1 52105U 22029T   24159.75191823  .00004508  00000-0  30127-3 0  9998,2 52105  53.2190  71.9176 0001366  88.5560 271.5589 15.08825625124178,6917.924,95.438,540.734,538.844,0.0
52105.0,STARLINK-3706,PAYLOAD,2024-06-07 22:48:54,15.08834355,0.00013,53.2199,71.0257,86.4135,273.7006,0.00020136,2.918e-05,0.0,0 STARLINK-3706,1 52105U 22029T   24159.95063589  .00002918  00000-0  20136-3 0  9999,2 52105  53.2199  71.0257 0001300  86.4135 273.7006 15.08834355124203,6917.898,95.438,540.662,538.863,0.0
52105.0,STARLINK-3706,PAYLOAD,2024-06-08 03:35:03,15.08834669,0.0001501,53.2187,70.1309,96.9505,263.1658,0.00037253,5.645e-05,0.0,0 STARLINK-3706,1 52105U 22029T   24160.14935052  .00005645  00000-0  37253-3 0  9993,2 52105  53.2187  70.1309 0001501  96.9505 263.1658 15.08834669124235,6917.897,95.438,540.8,538.723,0.0
